YAOGAN-43 01D           
1 60461U 24148D   26068.43560480  .00010676  00000+0  37766-3 0  9999
2 60461  35.0010  61.7102 0002556 326.2473  33.8080 15.28369377 87008
STARLINK-32395          
1 61679U 24193U   26068.44014796 -.00000951  00000+0 -19995-4 0  9998
2 61679  53.1606  92.4999 0001148 111.5436 248.5687 15.30190646 76489
